<?xml version="1.0" encoding="UTF-8"?>
<ndm xmlns:xsi="http://www.w3.org/2001/XMLSchema-instance" xsi:noNamespaceSchemaLocation="https://sanaregistry.org/r/ndmxml_unqualified/ndmxml-2.0.0-master-2.0.xsd">
<omm id="CCSDS_OMM_VERS" version="2.0">
<header><CREATION_DATE/><ORIGINATOR/></header><body><segment><metadata><OBJECT_NAME>ORBCOMM FM05 [-]</OBJECT_NAME><OBJECT_ID>1997-084F</OBJECT_ID><CENTER_NAME>EARTH</CENTER_NAME><REF_FRAME>TEME</REF_FRAME><TIME_SYSTEM>UTC</TIME_SYSTEM><MEAN_ELEMENT_THEORY>SGP4</MEAN_ELEMENT_THEORY></metadata><data><meanElements><EPOCH>2023-09-20T13:12:45.534528</EPOCH><MEAN_MOTION>14.41391390</MEAN_MOTION><ECCENTRICITY>.0003112</ECCENTRICITY><INCLINATION>45.0149</INCLINATION><RA_OF_ASC_NODE>168.1100</RA_OF_ASC_NODE><ARG_OF_PERICENTER>294.6628</ARG_OF_PERICENTER><MEAN_ANOMALY>65.3898</MEAN_ANOMALY></meanElements><tleParameters><EPHEMERIS_TYPE>0</EPHEMERIS_TYPE><CLASSIFICATION_TYPE>U</CLASSIFICATION_TYPE><NORAD_CAT_ID>25117</NORAD_CAT_ID><ELEMENT_SET_NO>999</ELEMENT_SET_NO><REV_AT_EPOCH>34876</REV_AT_EPOCH><BSTAR>.79096E-3</BSTAR><MEAN_MOTION_DOT>.2444E-4</MEAN_MOTION_DOT><MEAN_MOTION_DDOT>0</MEAN_MOTION_DDOT></tleParameters></data></segment></body></omm>
<omm id="CCSDS_OMM_VERS" version="2.0">
<header><CREATION_DATE/><ORIGINATOR/></header><body><segment><metadata><OBJECT_NAME>ORBCOMM FM06 [+]</OBJECT_NAME><OBJECT_ID>1997-084G</OBJECT_ID><CENTER_NAME>EARTH</CENTER_NAME><REF_FRAME>TEME</REF_FRAME><TIME_SYSTEM>UTC</TIME_SYSTEM><MEAN_ELEMENT_THEORY>SGP4</MEAN_ELEMENT_THEORY></metadata><data><meanElements><EPOCH>2023-09-20T11:16:29.004096</EPOCH><MEAN_MOTION>14.41324334</MEAN_MOTION><ECCENTRICITY>.0002581</ECCENTRICITY><INCLINATION>45.0145</INCLINATION><RA_OF_ASC_NODE>168.6430</RA_OF_ASC_NODE><ARG_OF_PERICENTER>311.6948</ARG_OF_PERICENTER><MEAN_ANOMALY>217.9636</MEAN_ANOMALY></meanElements><tleParameters><EPHEMERIS_TYPE>0</EPHEMERIS_TYPE><CLASSIFICATION_TYPE>U</CLASSIFICATION_TYPE><NORAD_CAT_ID>25118</NORAD_CAT_ID><ELEMENT_SET_NO>999</ELEMENT_SET_NO><REV_AT_EPOCH>34966</REV_AT_EPOCH><BSTAR>.78887E-3</BSTAR><MEAN_MOTION_DOT>.2434E-4</MEAN_MOTION_DOT><MEAN_MOTION_DDOT>0</MEAN_MOTION_DDOT></tleParameters></data></segment></body></omm>
<omm id="CCSDS_OMM_VERS" version="2.0">
<header><CREATION_DATE/><ORIGINATOR/></header><body><segment><metadata><OBJECT_NAME>ORBCOMM FM07 [-]</OBJECT_NAME><OBJECT_ID>1997-084H</OBJECT_ID><CENTER_NAME>EARTH</CENTER_NAME><REF_FRAME>TEME</REF_FRAME><TIME_SYSTEM>UTC</TIME_SYSTEM><MEAN_ELEMENT_THEORY>SGP4</MEAN_ELEMENT_THEORY></metadata><data><meanElements><EPOCH>2023-09-20T13:21:23.058432</EPOCH><MEAN_MOTION>14.41272558</MEAN_MOTION><ECCENTRICITY>.0003409</ECCENTRICITY><INCLINATION>45.0140</INCLINATION><RA_OF_ASC_NODE>168.6601</RA_OF_ASC_NODE><ARG_OF_PERICENTER>280.1956</ARG_OF_PERICENTER><MEAN_ANOMALY>79.8509</MEAN_ANOMALY></meanElements><tleParameters><EPHEMERIS_TYPE>0</EPHEMERIS_TYPE><CLASSIFICATION_TYPE>U</CLASSIFICATION_TYPE><NORAD_CAT_ID>25119</NORAD_CAT_ID><ELEMENT_SET_NO>999</ELEMENT_SET_NO><REV_AT_EPOCH>34967</REV_AT_EPOCH><BSTAR>.83437E-3</BSTAR><MEAN_MOTION_DOT>.258E-4</MEAN_MOTION_DOT><MEAN_MOTION_DDOT>0</MEAN_MOTION_DDOT></tleParameters></data></segment></body></omm>
<omm id="CCSDS_OMM_VERS" version="2.0">
<header><CREATION_DATE/><ORIGINATOR/></header><body><segment><metadata><OBJECT_NAME>ORBCOMM FM03 [-]</OBJECT_NAME><OBJECT_ID>1998-007B</OBJECT_ID><CENTER_NAME>EARTH</CENTER_NAME><REF_FRAME>TEME</REF_FRAME><TIME_SYSTEM>UTC</TIME_SYSTEM><MEAN_ELEMENT_THEORY>SGP4</MEAN_ELEMENT_THEORY></metadata><data><meanElements><EPOCH>2023-09-20T13:43:15.452832</EPOCH><MEAN_MOTION>14.31258413</MEAN_MOTION><ECCENTRICITY>.0049788</ECCENTRICITY><INCLINATION>107.9829</INCLINATION><RA_OF_ASC_NODE>273.1282</RA_OF_ASC_NODE><ARG_OF_PERICENTER>277.3877</ARG_OF_PERICENTER><MEAN_ANOMALY>82.1605</MEAN_ANOMALY></meanElements><tleParameters><EPHEMERIS_TYPE>0</EPHEMERIS_TYPE><CLASSIFICATION_TYPE>U</CLASSIFICATION_TYPE><NORAD_CAT_ID>25158</NORAD_CAT_ID><ELEMENT_SET_NO>999</ELEMENT_SET_NO><REV_AT_EPOCH>33300</REV_AT_EPOCH><BSTAR>.66653E-3</BSTAR><MEAN_MOTION_DOT>.1658E-4</MEAN_MOTION_DOT><MEAN_MOTION_DDOT>0</MEAN_MOTION_DDOT></tleParameters></data></segment></body></omm>
<omm id="CCSDS_OMM_VERS" version="2.0">
<header><CREATION_DATE/><ORIGINATOR/></header><body><segment><metadata><OBJECT_NAME>ORBCOMM FM04 [+]</OBJECT_NAME><OBJECT_ID>1998-007C</OBJECT_ID><CENTER_NAME>EARTH</CENTER_NAME><REF_FRAME>TEME</REF_FRAME><TIME_SYSTEM>UTC</TIME_SYSTEM><MEAN_ELEMENT_THEORY>SGP4</MEAN_ELEMENT_THEORY></metadata><data><meanElements><EPOCH>2023-09-20T14:28:05.102112</EPOCH><MEAN_MOTION>14.31534059</MEAN_MOTION><ECCENTRICITY>.0045279</ECCENTRICITY><INCLINATION>107.9810</INCLINATION><RA_OF_ASC_NODE>275.9729</RA_OF_ASC_NODE><ARG_OF_PERICENTER>275.4099</ARG_OF_PERICENTER><MEAN_ANOMALY>84.1875</MEAN_ANOMALY></meanElements><tleParameters><EPHEMERIS_TYPE>0</EPHEMERIS_TYPE><CLASSIFICATION_TYPE>U</CLASSIFICATION_TYPE><NORAD_CAT_ID>25159</NORAD_CAT_ID><ELEMENT_SET_NO>999</ELEMENT_SET_NO><REV_AT_EPOCH>33317</REV_AT_EPOCH><BSTAR>.60308E-3</BSTAR><MEAN_MOTION_DOT>.1493E-4</MEAN_MOTION_DOT><MEAN_MOTION_DDOT>0</MEAN_MOTION_DDOT></tleParameters></data></segment></body></omm>
<omm id="CCSDS_OMM_VERS" version="2.0">
<header><CREATION_DATE/><ORIGINATOR/></header><body><segment><metadata><OBJECT_NAME>ORBCOMM FM17 [-]</OBJECT_NAME><OBJECT_ID>1998-046A</OBJECT_ID><CENTER_NAME>EARTH</CENTER_NAME><REF_FRAME>TEME</REF_FRAME><TIME_SYSTEM>UTC</TIME_SYSTEM><MEAN_ELEMENT_THEORY>SGP4</MEAN_ELEMENT_THEORY></metadata><data><meanElements><EPOCH>2023-09-20T14:13:50.543040</EPOCH><MEAN_MOTION>14.32319164</MEAN_MOTION><ECCENTRICITY>.0003123</ECCENTRICITY><INCLINATION>44.9970</INCLINATION><RA_OF_ASC_NODE>10.1889</RA_OF_ASC_NODE><ARG_OF_PERICENTER>246.7013</ARG_OF_PERICENTER><MEAN_ANOMALY>113.3504</MEAN_ANOMALY></meanElements><tleParameters><EPHEMERIS_TYPE>0</EPHEMERIS_TYPE><CLASSIFICATION_TYPE>U</CLASSIFICATION_TYPE><NORAD_CAT_ID>25413</NORAD_CAT_ID><ELEMENT_SET_NO>999</ELEMENT_SET_NO><REV_AT_EPOCH>31196</REV_AT_EPOCH><BSTAR>.5719E-3</BSTAR><MEAN_MOTION_DOT>.1418E-4</MEAN_MOTION_DOT><MEAN_MOTION_DDOT>0</MEAN_MOTION_DDOT></tleParameters></data></segment></body></omm>
<omm id="CCSDS_OMM_VERS" version="2.0">
<header><CREATION_DATE/><ORIGINATOR/></header><body><segment><metadata><OBJECT_NAME>ORBCOMM FM18 [-]</OBJECT_NAME><OBJECT_ID>1998-046B</OBJECT_ID><CENTER_NAME>EARTH</CENTER_NAME><REF_FRAME>TEME</REF_FRAME><TIME_SYSTEM>UTC</TIME_SYSTEM><MEAN_ELEMENT_THEORY>SGP4</MEAN_ELEMENT_THEORY></metadata><data><meanElements><EPOCH>2023-09-20T05:55:55.187328</EPOCH><MEAN_MOTION>14.34791646</MEAN_MOTION><ECCENTRICITY>.0005468</ECCENTRICITY><INCLINATION>44.9951</INCLINATION><RA_OF_ASC_NODE>303.6077</RA_OF_ASC_NODE><ARG_OF_PERICENTER>302.0073</ARG_OF_PERICENTER><MEAN_ANOMALY>58.0242</MEAN_ANOMALY></meanElements><tleParameters><EPHEMERIS_TYPE>0</EPHEMERIS_TYPE><CLASSIFICATION_TYPE>U</CLASSIFICATION_TYPE><NORAD_CAT_ID>25414</NORAD_CAT_ID><ELEMENT_SET_NO>999</ELEMENT_SET_NO><REV_AT_EPOCH>31280</REV_AT_EPOCH><BSTAR>.6474E-3</BSTAR><MEAN_MOTION_DOT>.1712E-4</MEAN_MOTION_DOT><MEAN_MOTION_DDOT>0</MEAN_MOTION_DDOT></tleParameters></data></segment></body></omm>
<omm id="CCSDS_OMM_VERS" version="2.0">
<header><CREATION_DATE/><ORIGINATOR/></header><body><segment><metadata><OBJECT_NAME>ORBCOMM FM19 [+]</OBJECT_NAME><OBJECT_ID>1998-046C</OBJECT_ID><CENTER_NAME>EARTH</CENTER_NAME><REF_FRAME>TEME</REF_FRAME><TIME_SYSTEM>UTC</TIME_SYSTEM><MEAN_ELEMENT_THEORY>SGP4</MEAN_ELEMENT_THEORY></metadata><data><meanElements><EPOCH>2023-09-20T11:52:00.638112</EPOCH><MEAN_MOTION>14.34671897</MEAN_MOTION><ECCENTRICITY>.0004621</ECCENTRICITY><INCLINATION>44.9958</INCLINATION><RA_OF_ASC_NODE>303.5665</RA_OF_ASC_NODE><ARG_OF_PERICENTER>291.3726</ARG_OF_PERICENTER><MEAN_ANOMALY>208.9220</MEAN_ANOMALY></meanElements><tleParameters><EPHEMERIS_TYPE>0</EPHEMERIS_TYPE><CLASSIFICATION_TYPE>U</CLASSIFICATION_TYPE><NORAD_CAT_ID>25415</NORAD_CAT_ID><ELEMENT_SET_NO>999</ELEMENT_SET_NO><REV_AT_EPOCH>31280</REV_AT_EPOCH><BSTAR>.57262E-3</BSTAR><MEAN_MOTION_DOT>.1494E-4</MEAN_MOTION_DOT><MEAN_MOTION_DDOT>0</MEAN_MOTION_DDOT></tleParameters></data></segment></body></omm>

</ndm>
