ORBCOMM FM05 [-]        
1 25117U 97084F   23263.55052702  .00002444  00000+0  79096-3 0  9993
2 25117  45.0149 168.1100 0003112 294.6628  65.3898 14.41391390348764
ORBCOMM FM06 [+]        
1 25118U 97084G   23263.46978014  .00002434  00000+0  78887-3 0  9993
2 25118  45.0145 168.6430 0002581 311.6948 217.9636 14.41324334349665
ORBCOMM FM07 [-]        
1 25119U 97084H   23263.55651688  .00002580  00000+0  83437-3 0  9998
2 25119  45.0140 168.6601 0003409 280.1956  79.8509 14.41272558349675
ORBCOMM FM03 [-]        
1 25158U 98007B   23263.57170663  .00001658  00000+0  66653-3 0  9994
2 25158 107.9829 273.1282 0049788 277.3877  82.1605 14.31258413333004
ORBCOMM FM04 [+]        
1 25159U 98007C   23263.60283683  .00001493  00000+0  60308-3 0  9994
2 25159 107.9810 275.9729 0045279 275.4099  84.1875 14.31534059333179
ORBCOMM FM17 [-]        
1 25413U 98046A   23263.59294610  .00001418  00000+0  57190-3 0  9992
2 25413  44.9970  10.1889 0003123 246.7013 113.3504 14.32319164311960
ORBCOMM FM18 [-]        
1 25414U 98046B   23263.24716652  .00001712  00000+0  64740-3 0  9996
2 25414  44.9951 303.6077 0005468 302.0073  58.0242 14.34791646312804
ORBCOMM FM19 [+]        
1 25415U 98046C   23263.49445183  .00001494  00000+0  57262-3 0  9990
2 25415  44.9958 303.5665 0004621 291.3726 208.9220 14.34671897312806
